392P/LINEAR,e,4.9319,24.8859,71.8697,6.140590,0.0647722,0.68326262,69.4896,03/10.0/2023,2000,g 14.5,4.0
# From MPEC 2021-BE3
393P/Spacewatch-Hill,e,16.7876,36.3919,328.8833,4.793165,0.0939227,0.12050640,115.1974,03/10.0/2023,2000,g 11.0,4.0
# From MPEC 2020-KB7
394P/PANSTARRS,e,8.5297,98.1264,54.4459,4.329990,0.1093890,0.36744951,130.8873,03/10.0/2023,2000,g 16.0,2.4
# From MPEC 2023-C45
395P/Catalina-NEAT,e,3.3431,222.3412,92.2102,6.753508,0.0561578,0.39703091,23.9012,03/10.0/2023,2000,g 10.0,4.0
# From MPEC 2020-KB7
396P/,e,5.4371,136.6484,8.3923,6.805321,0.0555177,0.41582960,71.6489,03/10.0/2023,2000,g 12.0,4.0
# From MPEC 2022-OB6
397P/Lemmon,e,10.9293,8.1952,14.5332,3.830159,0.1314858,0.40528197,130.5787,03/10.0/2023,2000,g 12.0,4.0
# From MPEC 2021-L04
398P/Boattini,e,11.0174,127.4368,320.2058,3.126484,0.1782870,0.58312254,143.1679,03/10.0/2023,2000,g 15.5,4.0
# From MPEC 2022-M88
399P/PANSTARRS,e,13.3217,207.1310,214.3532,3.792136,0.1334683,0.44730990,87.5772,03/10.0/2023,2000,g 14.0,4.0
# From MPEC 2022-ED3
400P/PANSTARRS,e,10.9300,176.3909,238.8310,3.561643,0.1466319,0.40959379,111.0834,03/10.0/2023,2000,g 15.5,2.8
# From MPEC 2022-K19
401P/McNaught,e,12.8026,359.8829,309.4350,5.777195,0.0709788,0.57942695,84.4214,03/10.0/2023,2000,g 12.5,4.0
# From MPEC 2023-E49
402P/LINEAR,e,30.8425,123.0901,326.7640,7.026078,0.0529218,0.43950558,23.8245,03/10.0/2023,2000,g  8.0,4.0
# From MPEC 2021-J28
403P/Catalina,e,12.3208,163.8085,277.6400,5.428784,0.0779202,0.50396696,70.4675,03/10.0/2023,2000,g 12.0,4.0
# From MPEC 2023-D41
404P/Bressi,e,9.7685,260.1180,168.9359,4.751977,0.0951465,0.13022723,337.5323,03/10.0/2023,2000,g 10.0,4.0
# From MPEC 2021-L04
405P/Lemmon,e,9.3656,3.3087,112.1880,3.605910,0.1439401,0.68937318,115.9644,03/10.0/2023,2000,g 17.5,4.0
# From MPEC 2021-F20
406P/Gibbs,e,1.2129,11.4945,352.4302,3.577099,0.1456826,0.54196725,131.8508,03/10.0/2023,2000,g 17.0,4.0
# From MPEC 2022-YN2
407P/PANSTARRS-Fuls,e,4.8739,80.3646,93.5530,3.477748,0.1519697,0.37947094,172.7019,03/10.0/2023,2000,g 14.0,4.0
# From MPEC 2023-E49
408P/Novichonok-Gerke,e,19.3569,189.4416,226.4901,4.742527,0.0954310,0.26882290,14.8645,03/10.0/2023,2000,g 11.0,4.0
# From MPEC 2022-ED3
409P/LONEOS-Hill,e,17.1222,143.6629,15.0893,6.037897,0.0664317,0.70963685,51.2198,03/10.0/2023,2000,g 14.0,4.0
# From MPEC 2022-M21
410P/NEAT-LINEAR,e,9.3918,139.9741,313.1097,6.642222,0.0575750,0.51123151,35.9412,03/10.0/2023,2000,g 12.5,4.0
# From MPEC 2021-J28
411P/Christensen,e,12.3836,77.6530,46.5957,5.812748,0.0703286,0.58093254,54.4802,03/10.0/2023,2000,g 13.5,4.0
# From MPEC 2021-F20
412P/WISE,e,8.9314,0.8445,155.9378,3.110165,0.1796920,0.47908884,148.2772,03/10.0/2023,2000,g 17.0,4.0
# From MPEC 2022-OB6
413P/Larson,e,15.9872,38.9563,186.4393,3.719446,0.1374000,0.42292911,82.0677,03/10.0/2023,2000,g 14.0,4.0
# From MPEC 2021-BE3
414P/STEREO,e,23.3970,257.8012,210.6973,2.793353,0.2111132,0.81179674,163.3298,03/10.0/2023,2000,g 19.0,4.0
# From MPEC 2022-J42
415P/Tenagra,e,31.7920,160.2880,346.0061,4.112025,0.1182008,0.19471132,89.1422,03/10.0/2023,2000,g 12.0,4.0
# From MPEC 2021-L04
416P/Scotti,e,3.3612,355.7996,134.4187,4.009647,0.1227566,0.45445469,92.3951,03/10.0/2023,2000,g 15.5,4.0
# From MPEC 2021-W31
417P/NEOWISE,e,8.1299,110.6850,129.7398,3.340115,0.1614589,0.55827453,110.6639,03/10.0/2023,2000,g 16.5,4.0
# From MPEC 2022-TA0
418P/LINEAR,e,5.7879,277.4976,307.4439,5.093386,0.0857421,0.66478525,43.5879,03/10.0/2023,2000,g 13.0,4.0
# From MPEC 2022-ST7
419P/PANSTARRS,e,2.8030,40.3875,187.6250,3.521974,0.1491162,0.27741071,74.2908,03/10.0/2023,2000,g 12.5,4.0
# From MPEC 2022-OB6
420P/Hill,e,14.4983,173.9358,156.8802,5.534255,0.0757034,0.49663295,22.1270,03/10.0/2023,2000,g 11.5,4.0
# From MPEC 2021-W31
421P/McNaught,e,10.0769,55.3385,259.8785,5.076387,0.0861732,0.67519157,66.6451,03/10.0/2023,2000,g 14.0,4.0
# From MPEC 2022-X67
422P/Christensen,e,39.5823,36.0262,305.0098,6.301219,0.0623114,0.50748321,26.2320,03/10.0/2023,2000,g 11.0,4.0
# From MPEC 2023-A50
423P/Lemmon,e,8.3463,33.2958,80.3225,6.170792,0.0642973,0.12173543,34.5392,03/10.0/2023,2000,g  8.0,4.0
# From MPEC 2022-CN4
424P/LaSagra,e,8.6849,51.1661,312.5284,4.416818,0.1061793,0.69126210,52.4903,03/10.0/2023,2000,g 17.0,4.0
# From MPEC 2023-BF4
425P/Kowalski,e,16.4207,210.0756,200.8173,6.338633,0.0617605,0.54390129,33.0585,03/10.0/2023,2000,g 12.0,4.0
# From MPEC 2022-P82
426P/PANSTARRS,e,17.7649,280.4897,118.8929,3.189192,0.1730546,0.16169976,327.6517,03/10.0/2023,2000,g 13.5,4.0
# From MPEC 2022-J42
428P/Gibbs,e,8.5115,299.3405,36.8653,3.485775,0.1514450,0.51925644,100.6196,03/10.0/2023,2000,g 15.0,4.0
# From MPEC 2022-H04
429P/LINEAR-Hill,e,7.5203,322.0737,75.5825,3.552612,0.1471914,0.49142188,63.5523,03/10.0/2023,2000,g 15.5,4.0
# From MPEC 2022-L66
430P/Scotti,e,4.4753,54.6735,94.4559,3.105315,0.1801133,0.49956612,83.3626,03/10.0/2023,2000,g 16.5,4.0
# From MPEC 2023-D72
431P/Scotti,e,22.3925,202.8423,199.9023,3.474016,0.1522146,0.47779522,59.2948,03/10.0/2023,2000,g 14.0,4.0
# From MPEC 2021-U31
432P/PANSTARRS,e,10.0687,239.1396,105.2736,3.035730,0.1863414,0.24179981,103.7284,03/10.0/2023,2000,g 17.0,4.0
# From MPEC 2022-OB6
434P/Tenagra,e,6.3376,288.9628,128.1530,4.130819,0.1173951,0.27466910,58.6631,03/10.0/2023,2000,g 13.0,4.0
# From MPEC 2021-W31
435P/PANSTARRS,e,18.8792,98.5489,244.2027,3.019150,0.1878785,0.31850538,110.9476,03/10.0/2023,2000,g 17.0,4.0
# From MPEC 2022-X67
436P/Garradd,e,20.2068,87.1860,282.6341,5.931385,0.0682291,0.66981584,31.1443,03/10.0/2023,2000,g 14.5,4.0
# From MPEC 2023-B57
437P/Lemmon-PANSTARRS,e,3.6889,245.8604,206.7619,4.561692,0.1011615,0.25460357,20.5690,03/10.0/2023,2000,g 13.0,4.0
# From MPEC 2021-W47
438P/Christensen,e,8.2837,260.1395,59.0138,3.848841,0.1305296,0.41527636,139.5259,03/10.0/2023,2000,g 14.5,4.0
# From MPEC 2022-C56
439P/LINEAR,e,7.1144,56.4039,342.0578,3.489448,0.1512060,0.46961393,84.7907,03/10.0/2023,2000,g 13.5,4.0
# From MPEC 2022-WQ9
440P/Kobayashi,e,12.3389,328.8735,183.3005,8.580876,0.0392109,0.76042714,13.5313,03/10.0/2023,2000,g 15.5,4.0
# From MPEC 2022-X67
441P/PANSTARRS,e,2.5745,143.6148,178.8046,4.134489,0.1172388,0.19538467,252.8691,03/10.0/2023,2000,g 13.5,4.0
# From MPEC 2022-YN2
442P/McNaught,e,6.0590,32.0155,310.9057,4.976530,0.0887798,0.53343714,18.0275,03/10.0/2023,2000,g 13.5,4.0
# From MPEC 2022-OB6
443P/PANSTARRS-Christensen,e,19.8877,108.9430,145.1110,4.126866,0.1175638,0.28367294,17.7350,03/10.0/2023,2000,g 13.5,4.0
# From MPEC 2022-YN2
444P/WISE-PANSTARRS,e,22.1237,89.3844,170.9471,3.429774,0.1551693,0.57040583,37.6384,03/10.0/2023,2000,g 17.0,4.0
# From MPEC 2022-YB4
445P/Lemmon-PANSTARRS,e,1.0886,126.5832,213.6388,4.060112,0.1204750,0.41444085,24.6264,03/10.0/2023,2000,g 15.0,4.0
# From MPEC 2022-WQ9
446P/McNaught,e,16.6132,336.4005,344.7168,4.570853,0.1008575,0.64703497,28.6868,03/10.0/2023,2000,g 16.5,4.0
# From MPEC 2022-YB4
447P/Sheppard-Tholen,e,7.4340,302.6663,97.6932,5.640182,0.0735808,0.17963941,14.9208,03/10.0/2023,2000,g 12.0,4.0
# From MPEC 2023-A50
448P/PANSTARRS,e,12.1515,161.7541,218.7247,3.634550,0.1422421,0.41890126,26.2382,03/10.0/2023,2000,g 16.0,4.0
# From MPEC 2022-UE6
449P/Leonard,e,15.4658,242.5307,176.6912,3.600171,0.1442844,0.47964240,120.6272,03/10.0/2023,2000,g 16.0,4.0
# From MPEC 2022-TA6
450P/LONEOS,e,10.5518,124.8546,21.1039,7.972962,0.0437799,0.31056817,298.3038,03/10.0/2023,2000,g  6.5,4.0
# From MPEC 2023-E49
451P/Christensen,e,26.4820,300.9115,186.6954,6.339029,0.0617547,0.55852496,6.3281,03/10.0/2023,2000,g 13.5,4.0
# From MPEC 2023-E49
452P/Sheppard-Jewitt,e,6.4224,123.6990,37.0510,7.295062,0.0500219,0.42725956,357.6657,03/10.0/2023,2000,g  9.0,4.0
# From MPEC 2023-E49
453P/WISE-Lemmon,e,27.0678,42.8973,70.8257,5.457373,0.0773087,0.58249476,0.5396,03/10.0/2023,2000,g 14.0,4.0
# From MPEC 2023-CD7
454P/PANSTARRS,e,19.8124,54.5875,20.0026,4.205525,0.1142809,0.36136467,25.9388,03/10.0/2023,2000,g 14.0,4.0
# From MPEC 2022-Y14
455P/PANSTARRS,e,14.1375,146.2035,237.5622,3.155165,0.1758616,0.30536433,2.2062,03/10.0/2023,2000,g 17.0,4.0
# From MPEC 2023-BD5
456P/PANSTARRS,e,16.9595,243.2046,234.3988,3.166441,0.1749230,0.11821636,224.8382,03/10.0/2023,2000,g 13.5,4.0
# From MPC107687
1I/`Oumuamua,h,09/09.4886/2017,122.6778,24.5997,241.6845,1.199252,0.255240,2000,23.0,2.0
# From MPEC 2020-K19
2I/Borisov,h,12/08.5549/2019,44.0527,308.1480,209.1251,3.356636,2.006548,2000,11.0,4.0
